{
  "type": "FeatureCollection",
  "features": [
    {
      "type": "Feature",
      "properties": {
        "OBJECT_NAME": "CZ-2F R/B",
        "OBJECT_ID": "2025-272B",
        "EPOCH": "2025-11-26T11:17:54.506400",
        "MEAN_MOTION": 16.01945612,
        "ECCENTRICITY": 0.01210796,
        "INCLINATION": 41.4431,
        "RA_OF_ASC_NODE": 114.9009,
        "ARG_OF_PERICENTER": 133.7676,
        "MEAN_ANOMALY": 227.3272,
        "EPHEMERIS_TYPE": 0,
        "CLASSIFICATION_TYPE": "U",
        "NORAD_CAT_ID": 66646,
        "ELEMENT_SET_NO": 999,
        "REV_AT_EPOCH": 21,
        "BSTAR": 0.00029319366,
        "MEAN_MOTION_DOT": 0.00449059,
        "MEAN_MOTION_DDOT": 7.567612e-06,
        "norad_id": 66646,
        "name": "CZ-2F R/B",
        "group": "stations",
        "longitude_deg": NaN,
        "latitude_deg": NaN,
        "alt_km": NaN,
        "orbit_class": "HEO",
        "timestamp": "2025-11-30T08:43:09.295687+00:00"
      },
      "geometry": {
        "type": "Point",
        "coordinates": [
          NaN,
          NaN
        ]
      }
    },
    {
      "type": "Feature",
      "properties": {
        "OBJECT_NAME": "SL-4 R/B",
        "OBJECT_ID": "2025-275B",
        "EPOCH": "2025-11-29T08:19:25.067424",
        "MEAN_MOTION": 16.43094745,
        "ECCENTRICITY": 0.0004581,
        "INCLINATION": 51.6501,
        "RA_OF_ASC_NODE": 207.6669,
        "ARG_OF_PERICENTER": 68.9636,
        "MEAN_ANOMALY": 291.1882,
        "EPHEMERIS_TYPE": 0,
        "CLASSIFICATION_TYPE": "U",
        "NORAD_CAT_ID": 66665,
        "ELEMENT_SET_NO": 999,
        "REV_AT_EPOCH": 33,
        "BSTAR": 0.00039285,
        "MEAN_MOTION_DOT": 0.08397088,
        "MEAN_MOTION_DDOT": 1.2512e-05,
        "norad_id": 66665,
        "name": "SL-4 R/B",
        "group": "stations",
        "longitude_deg": NaN,
        "latitude_deg": NaN,
        "alt_km": NaN,
        "orbit_class": "HEO",
        "timestamp": "2025-11-30T08:43:09.295811+00:00"
      },
      "geometry": {
        "type": "Point",
        "coordinates": [
          NaN,
          NaN
        ]
      }
    },
    {
      "type": "Feature",
      "properties": {
        "OBJECT_NAME": "FREGAT DEB",
        "OBJECT_ID": "2011-037PF",
        "EPOCH": "2025-11-30T02:27:10.897344",
        "MEAN_MOTION": 12.34314267,
        "ECCENTRICITY": 0.0869985,
        "INCLINATION": 51.6202,
        "RA_OF_ASC_NODE": 236.7991,
        "ARG_OF_PERICENTER": 196.4494,
        "MEAN_ANOMALY": 160.6386,
        "EPHEMERIS_TYPE": 0,
        "CLASSIFICATION_TYPE": "U",
        "NORAD_CAT_ID": 49271,
        "ELEMENT_SET_NO": 999,
        "REV_AT_EPOCH": 20037,
        "BSTAR": 0.014226,
        "MEAN_MOTION_DOT": 6.404e-05,
        "MEAN_MOTION_DDOT": 0,
        "norad_id": 49271,
        "name": "FREGAT DEB",
        "group": "stations",
        "longitude_deg": NaN,
        "latitude_deg": NaN,
        "alt_km": NaN,
        "orbit_class": "HEO",
        "timestamp": "2025-11-30T08:43:09.295840+00:00"
      },
      "geometry": {
        "type": "Point",
        "coordinates": [
          NaN,
          NaN
        ]
      }
    },
    {
      "type": "Feature",
      "properties": {
        "OBJECT_NAME": "HRC MONOBLOCK CAMERA",
        "OBJECT_ID": "1998-067XR",
        "EPOCH": "2025-11-30T01:01:54.378336",
        "MEAN_MOTION": 15.52962161,
        "ECCENTRICITY": 0.0004565,
        "INCLINATION": 51.6304,
        "RA_OF_ASC_NODE": 204.7561,
        "ARG_OF_PERICENTER": 133.5581,
        "MEAN_ANOMALY": 226.5789,
        "EPHEMERIS_TYPE": 0,
        "CLASSIFICATION_TYPE": "U",
        "NORAD_CAT_ID": 66052,
        "ELEMENT_SET_NO": 999,
        "REV_AT_EPOCH": 686,
        "BSTAR": 0.00061067,
        "MEAN_MOTION_DOT": 0.00038473,
        "MEAN_MOTION_DDOT": 0,
        "norad_id": 66052,
        "name": "HRC MONOBLOCK CAMERA",
        "group": "stations",
        "longitude_deg": NaN,
        "latitude_deg": NaN,
        "alt_km": NaN,
        "orbit_class": "HEO",
        "timestamp": "2025-11-30T08:43:09.295977+00:00"
      },
      "geometry": {
        "type": "Point",
        "coordinates": [
          NaN,
          NaN
        ]
      }
    }
  ]
}